STARLINK-34692          
1 65759U 25216AB  26062.11474615  .00024217  00000+0  82704-3 0  9992
2 65759  53.1602   3.6598 0001119  95.8736 264.2392 15.30202470 25494
STARLINK-34890          
1 65760U 25216AC  26062.11779816  .00030126  00000+0  10248-2 0  9994
2 65760  53.1609   2.9698 0001089  87.4229 272.6896 15.30210835 25537
STARLINK-34889          
1 65761U 25216AD  26062.11052546  .00025224  00000+0  86085-3 0  9995
2 65761  53.1612   3.6354 0001220 110.1586 249.9546 15.30200578 25583
STARLINK-35330          
1 65791U 25218A   26062.16506522  .00003255  00000+0  22970-3 0  9996
2 65791  97.6024 286.4565 0001741  87.9492 272.1934 15.05651406 23989
STARLINK-35373          
1 65792U 25218B   26062.13185923  .00013266  00000+0  92139-3 0  9999
2 65792  97.6017 286.5003 0001250  52.1967 307.9373 15.05669567 23987
STARLINK-35383          
1 65793U 25218C   26062.11521935 -.00003953  00000+0 -26993-3 0  9994
2 65793  97.6012 286.5235 0001678  77.0548 283.0866 15.05647831 23986
STARLINK-35378          
1 65794U 25218D   26062.15675635  .00002601  00000+0  18441-3 0  9992
2 65794  97.6033 286.4674 0001607  62.4499 297.6891 15.05654110 23988
STARLINK-35406          
1 65795U 25218E   26062.14845303  .00003386  00000+0  23871-3 0  9997
2 65795  97.6030 286.4778 0002632  85.1435 275.0093 15.05655457 23981
STARLINK-35390          
1 65796U 25218F   26062.12353700  .00003885  00000+0  27329-3 0  9997
2 65796  97.6011 286.5118 0001977  81.2326 278.9125 15.05654935 23985
STARLINK-35412          
1 65797U 25218G   26062.17338198  .00003898  00000+0  27419-3 0  9991
2 65797  97.6014 286.6006 0001492  87.9176 272.2222 15.05656263 23996
STARLINK-35414          
1 65798U 25218H   26062.14017172  .00016553  00000+0  11496-2 0  9994
2 65798  97.6033 286.4921 0002362  48.3350 311.8078 15.05622729 23982
STARLINK-35357          
1 65799U 25218J   26062.14568796  .00004084  00000+0  28709-3 0  9990
2 65799  97.6034 286.4830 0002111  90.8463 269.3006 15.05651337 23987
STARLINK-35300          
1 65800U 25218K   26062.16229760  .00002925  00000+0  20681-3 0  9993
2 65800  97.6029 286.4608 0001992  84.4632 275.6822 15.05650603 23981
STARLINK-35296          
1 65801U 25218L   26062.11246338  .00003087  00000+0  21807-3 0  9990
2 65801  97.6015 286.5271 0001919  80.4261 279.7183 15.05651601 23981
STARLINK-34919          
1 65802U 25218M   26062.12907154  .00005489  00000+0  38423-3 0  9992
2 65802  97.6018 286.5054 0001576  96.0378 264.1028 15.05662062 23984
STARLINK-35286          
1 65803U 25218N   26062.15952556  .00005393  00000+0  37760-3 0  9999
2 65803  97.6020 286.4628 0001995  94.5068 265.6387 15.05657147 23980
STARLINK-35266          
1 65804U 25218P   26062.15399185  .00002919  00000+0  20640-3 0  9993
2 65804  97.6039 286.4724 0002072  93.6743 266.4721 15.05650334 23987
