[{"OBJECT_NAME":"STARLINK-34692","OBJECT_ID":"2025-216AB","EPOCH":"2026-03-03T02:45:14.067360","MEAN_MOTION":15.3020247,"ECCENTRICITY":0.0001119,"INCLINATION":53.1602,"RA_OF_ASC_NODE":3.6598,"ARG_OF_PERICENTER":95.8736,"MEAN_ANOMALY":264.2392,"EPHEMERIS_TYPE":0,"CLASSIFICATION_TYPE":"U","NORAD_CAT_ID":65759,"ELEMENT_SET_NO":999,"REV_AT_EPOCH":2549,"BSTAR":0.00082704,"MEAN_MOTION_DOT":0.00024217,"MEAN_MOTION_DDOT":0},{"OBJECT_NAME":"STARLINK-34890","OBJECT_ID":"2025-216AC","EPOCH":"2026-03-03T02:49:37.761024","MEAN_MOTION":15.30210835,"ECCENTRICITY":0.0001089,"INCLINATION":53.1609,"RA_OF_ASC_NODE":2.9698,"ARG_OF_PERICENTER":87.4229,"MEAN_ANOMALY":272.6896,"EPHEMERIS_TYPE":0,"CLASSIFICATION_TYPE":"U","NORAD_CAT_ID":65760,"ELEMENT_SET_NO":999,"REV_AT_EPOCH":2553,"BSTAR":0.0010248,"MEAN_MOTION_DOT":0.00030126,"MEAN_MOTION_DDOT":0},{"OBJECT_NAME":"STARLINK-34889","OBJECT_ID":"2025-216AD","EPOCH":"2026-03-03T02:39:09.399744","MEAN_MOTION":15.30200578,"ECCENTRICITY":0.000122,"INCLINATION":53.1612,"RA_OF_ASC_NODE":3.6354,"ARG_OF_PERICENTER":110.1586,"MEAN_ANOMALY":249.9546,"EPHEMERIS_TYPE":0,"CLASSIFICATION_TYPE":"U","NORAD_CAT_ID":65761,"ELEMENT_SET_NO":999,"REV_AT_EPOCH":2558,"BSTAR":0.00086085,"MEAN_MOTION_DOT":0.00025224,"MEAN_MOTION_DDOT":0},{"OBJECT_NAME":"STARLINK-35330","OBJECT_ID":"2025-218A","EPOCH":"2026-03-03T03:57:41.635008","MEAN_MOTION":15.05651406,"ECCENTRICITY":0.0001741,"INCLINATION":97.6024,"RA_OF_ASC_NODE":286.4565,"ARG_OF_PERICENTER":87.9492,"MEAN_ANOMALY":272.1934,"EPHEMERIS_TYPE":0,"CLASSIFICATION_TYPE":"U","NORAD_CAT_ID":65791,"ELEMENT_SET_NO":999,"REV_AT_EPOCH":2398,"BSTAR":0.0002297,"MEAN_MOTION_DOT":3.255e-5,"MEAN_MOTION_DDOT":0},{"OBJECT_NAME":"STARLINK-35373","OBJECT_ID":"2025-218B","EPOCH":"2026-03-03T03:09:52.637472","MEAN_MOTION":15.05669567,"ECCENTRICITY":0.000125,"INCLINATION":97.6017,"RA_OF_ASC_NODE":286.5003,"ARG_OF_PERICENTER":52.1967,"MEAN_ANOMALY":307.9373,"EPHEMERIS_TYPE":0,"CLASSIFICATION_TYPE":"U","NORAD_CAT_ID":65792,"ELEMENT_SET_NO":999,"REV_AT_EPOCH":2398,"BSTAR":0.00092139,"MEAN_MOTION_DOT":0.00013266,"MEAN_MOTION_DDOT":0},{"OBJECT_NAME":"STARLINK-35383","OBJECT_ID":"2025-218C","EPOCH":"2026-03-03T02:45:54.951840","MEAN_MOTION":15.05647831,"ECCENTRICITY":0.0001678,"INCLINATION":97.6012,"RA_OF_ASC_NODE":286.5235,"ARG_OF_PERICENTER":77.0548,"MEAN_ANOMALY":283.0866,"EPHEMERIS_TYPE":0,"CLASSIFICATION_TYPE":"U","NORAD_CAT_ID":65793,"ELEMENT_SET_NO":999,"REV_AT_EPOCH":2398,"BSTAR":-0.00026993,"MEAN_MOTION_DOT":-3.953e-5,"MEAN_MOTION_DDOT":0},{"OBJECT_NAME":"STARLINK-35378","OBJECT_ID":"2025-218D","EPOCH":"2026-03-03T03:45:43.748640","MEAN_MOTION":15.0565411,"ECCENTRICITY":0.0001607,"INCLINATION":97.6033,"RA_OF_ASC_NODE":286.4674,"ARG_OF_PERICENTER":62.4499,"MEAN_ANOMALY":297.6891,"EPHEMERIS_TYPE":0,"CLASSIFICATION_TYPE":"U","NORAD_CAT_ID":65794,"ELEMENT_SET_NO":999,"REV_AT_EPOCH":2398,"BSTAR":0.00018441,"MEAN_MOTION_DOT":2.601e-5,"MEAN_MOTION_DDOT":0},{"OBJECT_NAME":"STARLINK-35406","OBJECT_ID":"2025-218E","EPOCH":"2026-03-03T03:33:46.341792","MEAN_MOTION":15.05655457,"ECCENTRICITY":0.0002632,"INCLINATION":97.603,"RA_OF_ASC_NODE":286.4778,"ARG_OF_PERICENTER":85.1435,"MEAN_ANOMALY":275.0093,"EPHEMERIS_TYPE":0,"CLASSIFICATION_TYPE":"U","NORAD_CAT_ID":65795,"ELEMENT_SET_NO":999,"REV_AT_EPOCH":2398,"BSTAR":0.00023871,"MEAN_MOTION_DOT":3.386e-5,"MEAN_MOTION_DDOT":0},{"OBJECT_NAME":"STARLINK-35390","OBJECT_ID":"2025-218F","EPOCH":"2026-03-03T02:57:53.596800","MEAN_MOTION":15.05654935,"ECCENTRICITY":0.0001977,"INCLINATION":97.6011,"RA_OF_ASC_NODE":286.5118,"ARG_OF_PERICENTER":81.2326,"MEAN_ANOMALY":278.9125,"EPHEMERIS_TYPE":0,"CLASSIFICATION_TYPE":"U","NORAD_CAT_ID":65796,"ELEMENT_SET_NO":999,"REV_AT_EPOCH":2398,"BSTAR":0.00027329,"MEAN_MOTION_DOT":3.885e-5,"MEAN_MOTION_DDOT":0},{"OBJECT_NAME":"STARLINK-35412","OBJECT_ID":"2025-218G","EPOCH":"2026-03-03T04:09:40.203072","MEAN_MOTION":15.05656263,"ECCENTRICITY":0.0001492,"INCLINATION":97.6014,"RA_OF_ASC_NODE":286.6006,"ARG_OF_PERICENTER":87.9176,"MEAN_ANOMALY":272.2222,"EPHEMERIS_TYPE":0,"CLASSIFICATION_TYPE":"U","NORAD_CAT_ID":65797,"ELEMENT_SET_NO":999,"REV_AT_EPOCH":2399,"BSTAR":0.00027419,"MEAN_MOTION_DOT":3.898e-5,"MEAN_MOTION_DDOT":0},{"OBJECT_NAME":"STARLINK-35414","OBJECT_ID":"2025-218H","EPOCH":"2026-03-03T03:21:50.836608","MEAN_MOTION":15.05622729,"ECCENTRICITY":0.0002362,"INCLINATION":97.6033,"RA_OF_ASC_NODE":286.4921,"ARG_OF_PERICENTER":48.335,"MEAN_ANOMALY":311.8078,"EPHEMERIS_TYPE":0,"CLASSIFICATION_TYPE":"U","NORAD_CAT_ID":65798,"ELEMENT_SET_NO":999,"REV_AT_EPOCH":2398,"BSTAR":0.0011496,"MEAN_MOTION_DOT":0.00016553,"MEAN_MOTION_DDOT":0},{"OBJECT_NAME":"STARLINK-35357","OBJECT_ID":"2025-218J","EPOCH":"2026-03-03T03:29:47.439744","MEAN_MOTION":15.05651337,"ECCENTRICITY":0.0002111,"INCLINATION":97.6034,"RA_OF_ASC_NODE":286.483,"ARG_OF_PERICENTER":90.8463,"MEAN_ANOMALY":269.3006,"EPHEMERIS_TYPE":0,"CLASSIFICATION_TYPE":"U","NORAD_CAT_ID":65799,"ELEMENT_SET_NO":999,"REV_AT_EPOCH":2398,"BSTAR":0.00028709,"MEAN_MOTION_DOT":4.084e-5,"MEAN_MOTION_DDOT":0},{"OBJECT_NAME":"STARLINK-35300","OBJECT_ID":"2025-218K","EPOCH":"2026-03-03T03:53:42.512640","MEAN_MOTION":15.05650603,"ECCENTRICITY":0.0001992,"INCLINATION":97.6029,"RA_OF_ASC_NODE":286.4608,"ARG_OF_PERICENTER":84.4632,"MEAN_ANOMALY":275.6822,"EPHEMERIS_TYPE":0,"CLASSIFICATION_TYPE":"U","NORAD_CAT_ID":65800,"ELEMENT_SET_NO":999,"REV_AT_EPOCH":2398,"BSTAR":0.00020681,"MEAN_MOTION_DOT":2.925e-5,"MEAN_MOTION_DDOT":0},{"OBJECT_NAME":"STARLINK-35296","OBJECT_ID":"2025-218L","EPOCH":"2026-03-03T02:41:56.836032","MEAN_MOTION":15.05651601,"ECCENTRICITY":0.0001919,"INCLINATION":97.6015,"RA_OF_ASC_NODE":286.5271,"ARG_OF_PERICENTER":80.4261,"MEAN_ANOMALY":279.7183,"EPHEMERIS_TYPE":0,"CLASSIFICATION_TYPE":"U","NORAD_CAT_ID":65801,"ELEMENT_SET_NO":999,"REV_AT_EPOCH":2398,"BSTAR":0.00021807,"MEAN_MOTION_DOT":3.087e-5,"MEAN_MOTION_DDOT":0},{"OBJECT_NAME":"STARLINK-34919","OBJECT_ID":"2025-218M","EPOCH":"2026-03-03T03:05:51.781056","MEAN_MOTION":15.05662062,"ECCENTRICITY":0.0001576,"INCLINATION":97.6018,"RA_OF_ASC_NODE":286.5054,"ARG_OF_PERICENTER":96.0378,"MEAN_ANOMALY":264.1028,"EPHEMERIS_TYPE":0,"CLASSIFICATION_TYPE":"U","NORAD_CAT_ID":65802,"ELEMENT_SET_NO":999,"REV_AT_EPOCH":2398,"BSTAR":0.00038423,"MEAN_MOTION_DOT":5.489e-5,"MEAN_MOTION_DDOT":0},{"OBJECT_NAME":"STARLINK-35286","OBJECT_ID":"2025-218N","EPOCH":"2026-03-03T03:49:43.008384","MEAN_MOTION":15.05657147,"ECCENTRICITY":0.0001995,"INCLINATION":97.602,"RA_OF_ASC_NODE":286.4628,"ARG_OF_PERICENTER":94.5068,"MEAN_ANOMALY":265.6387,"EPHEMERIS_TYPE":0,"CLASSIFICATION_TYPE":"U","NORAD_CAT_ID":65803,"ELEMENT_SET_NO":999,"REV_AT_EPOCH":2398,"BSTAR":0.0003776,"MEAN_MOTION_DOT":5.393e-5,"MEAN_MOTION_DDOT":0},{"OBJECT_NAME":"STARLINK-35266","OBJECT_ID":"2025-218P","EPOCH":"2026-03-03T03:41:44.895840","MEAN_MOTION":15.05650334,"ECCENTRICITY":0.0002072,"INCLINATION":97.6039,"RA_OF_ASC_NODE":286.4724,"ARG_OF_PERICENTER":93.6743,"MEAN_ANOMALY":266.4721,"EPHEMERIS_TYPE":0,"CLASSIFICATION_TYPE":"U","NORAD_CAT_ID":65804,"ELEMENT_SET_NO":999,"REV_AT_EPOCH":2398,"BSTAR":0.0002064,"MEAN_MOTION_DOT":2.919e-5,"MEAN_MOTION_DDOT":0}]
